[{"OBJECT_NAME":"TYCHE","OBJECT_ID":"2024-149AE","EPOCH":"2026-03-09T21:56:23.347104","MEAN_MOTION":15.258912,"ECCENTRICITY":0.00028588,"INCLINATION":97.3802,"RA_OF_ASC_NODE":148.0484,"ARG_OF_PERICENTER":233.085,"MEAN_ANOMALY":127.0127,"EPHEMERIS_TYPE":0,"CLASSIFICATION_TYPE":"U","NORAD_CAT_ID":60496,"ELEMENT_SET_NO":999,"REV_AT_EPOCH":8676,"BSTAR":0.00024931274,"MEAN_MOTION_DOT":6.318e-5,"MEAN_MOTION_DDOT":0},{"OBJECT_NAME":"SIMSAT 1","OBJECT_ID":"2000-026A","EPOCH":"2026-03-09T17:22:54.646176","MEAN_MOTION":15.27666538,"ECCENTRICITY":0.00084816,"INCLINATION":86.3501,"RA_OF_ASC_NODE":180.5413,"ARG_OF_PERICENTER":14.8337,"MEAN_ANOMALY":345.3157,"EPHEMERIS_TYPE":0,"CLASSIFICATION_TYPE":"U","NORAD_CAT_ID":26365,"ELEMENT_SET_NO":999,"REV_AT_EPOCH":42720,"BSTAR":0.00013499313,"MEAN_MOTION_DOT":3.69e-5,"MEAN_MOTION_DDOT":0}]
